Raw acceleration counts   (Format v01.20 with 13 text lines)
Record of Southern PR Fault Zone  of  Sun  Jul  18 , 2021  03:52 UTC
Hypocenter 17.9443    -67.0966  H= 11 km Ml: 4.46 
Origin: 2021/07/18 03:52:25    UTC
Statn No: 54          Code: PR-GNC1  Guanica OMME 
Coords: 17.972204  -66.908646 Site Geology:
Recorder: Unk            ( 2 Chns of  3  at Sta) Sensor: (see comment)  
Rcrd start time: 2021/07/18 3:51:25 UTC (Q=?) RcrdId:
Sta Chan: 0 deg       Location:
Raw record length = 133 sec,   Uncor max =  22110    , at  Unk sec. 
Processed 2022-03-11 14:01:12 AST
No filtering!
Values used when parameter of data value is unknown/unspecified:   -999, -999.000
 100 Integer-header values follow on  10 lines, Format = (10I8)
       0       1      51     120       1    -999    -999       0    -999    -999
      42    -999    -999    -999    -999       1    -999    -999       1    -999
    -999    -999    -999    -999    -999    -999    -999    -999    -999     109
       3    -999    -999    -999      24      24    -999    -999    -999    2021
    -999       7      18       3      52       5       8    -999    -999    -999
    -999      20    -999       0    -999    -999    -999    -999    -999    -999
    -999    -999    -999    -999    -999    -999    -999    -999    -999    -999
    -999    -999    -999    -999       1       0    -999    -999    -999    -999
    -999    -999    -999    -999    -999    -999    -999    -999    -999    -999
    -999    -999    -999    -999    -999    -999    -999    -999    -999    -999
 100 Real-header values follow on  20 lines, Format = (5F15.6)
      17.972204     -66.908646       3.000000    -999.000000    -999.000000
    -999.000000    -999.000000    -999.000000    -999.000000      17.944300
     -67.096600      11.000000    -999.000000    -999.000000       4.460000
    -999.000000      20.121995      81.129693    -999.000000    -999.000000
    -999.000000       0.298024    -999.000000      60.000000      73.325000
      80.000000    -999.000000    -999.000000    -999.000000      25.310000
    -999.000000    -999.000000    -999.000000       0.005000     133.325000
    -999.000000    -999.000000    -999.000000    -999.000000     210.000000
       0.697089       5.000000    -999.000000    -999.000000    -999.000000
    -999.000000       1.000000    -999.000000    -999.000000       0.000000
    -999.000000    -999.000000    -999.000000    -999.000000    -999.000000
    -999.000000    -999.000000    -999.000000    -999.000000    -999.000000
    -999.000000       5.000000     133.325000   22110.000000    -999.000000
      -0.000000    -999.000000    -999.000000    -999.000000    -999.000000
    -999.000000    -999.000000    -999.000000    -999.000000    -999.000000
    -999.000000    -999.000000    -999.000000    -999.000000    -999.000000
    -999.000000    -999.000000    -999.000000    -999.000000    -999.000000
    -999.000000    -999.000000    -999.000000    -999.000000    -999.000000
    -999.000000    -999.000000    -999.000000    -999.000000    -999.000000
    -999.000000    -999.000000    -999.000000    -999.000000    -999.000000
    3 Comment line(s) follow, each starting with a |
| RcrdId: GNC1.HNN.PR.01 
| Sensor: EPISENSOR ES-T s/n: 101513 
|<SCNL> GNC1.HNN.PR.01     <AUTH> 2022-03-11 14:01:12.162840
   26510 raw accel.   pts approx   133 secs, units=volts (51),Format=(8I10)
[...]
    -17979    -17996    -18279    -18194    -17943    -18087    -18230    -18120 
    -17942    -18233    -18255    -17914    -18094    -18268    -18094    -17964 
    -18221    -18211    -17960    -18066    -18291    -18114    -17933    -18166 
    -18223    -18002    -17990    -18277    -18169    -17940    -18095    -18280 
    -18074    -17958    -18231    -18162    -17962    -18099    -18262    -18046 
    -18018    -18230    -18157    -17988    -18131    -18248    -17978    -18043 
    -18194    -18137    -18020    -18101    -18287    -18075    -17953    -18225 
    -18269    -17950    -18050    -18212    -18085    -17971    -18172    -18302 
    -17955    -17989    -18303    -18154    -17992    -18179    -18200    -17979 
    -18006    -18308    -18175    -17918    -18112    -18279    -17985    -18018 
    -18336    -18134    -17932    -18084    -18307    -18105    -17974    -18218 
    -18218    -17953    -18058    -18299    -18130    -17965    -18132    -18242 
    -17981    -18063    -18302    -18104    -17928    -18160    -18245    -17988 
    -18077    -18219    -18139    -17960    -18104    -18319    -18000    -17978 
    -18268    -18132    -17970    -18166    -18244    -18067    -18007    -18230 
    -18166    -17936    -18137    -18237    -18014    -17997    -18199    -18152 
    -18042    -18082    -18267    -18077    -17923    -18261    -18200    -17956 
    -18090    -18244    -18074    -17994    -18177    -18280    -17955    -17976 
    -18352    -18099    -17919    -18221    -18229    -17955    -18072    -18296 
    -18173    -17898    -18108    -18333    -17978    -18012    -18279    -18088 
    -17930    -18144    -18284    -18109    -17912    -18161    -18240    -17961 
    -18119    -18229    -18052    -17950    -18193    -18267    -17989    -18054 
    -18223    -18072    -18011    -18193    -18203    -18007    -17980    -18287 
    -18202    -17909    -18150    -18264    -17980    -18042    -18221    -18148 
    -17999    -18076    -18306    -18067    -17992    -18227    -18170    -18001 
    -18125    -18259    -17995    -18003    -18249    -18200    -17942    -18082 
    -18307    -17993    -18011    -18283    -18141    -17929    -18100    -18305 
    -18096    -17966    -18193    -18203    -17968    -18071    -18280    -18115 
    -17940    -18098    -18260    -18092    -17974    -18274    -18137    -17908 
    -18145    -18271    -18087    -17926    -18218    -18195    -17937    -18143 
    -18340    -18010    -17907    -18243    -18225    -18000    -18060    -18246 
    -18082    -17921    -18260    -18308    -17898    -18063    -18252    -18111 
    -18025    -18174    -18214    -17981    -18040    -18250    -18194    -17935 
    -18137    -18202    -17990    -18063    -18225    -18154    -17943    -18119 
    -18269    -18055    -17973    -18271    -18165    -17906    -18125    -18279 
    -18022    -17987    -18268    -18165    -17980    -18054    -18297    -18088 
    -17971    -18228    -18123    -17994    -18124    -18274    -18079    -17965 
    -18179    -18222    -17993    -18085    -18261    -18065    -17911    -18199 
    -18368    -17958    -17982    -18275    -18142    -17936    -18151    -18296 
    -17983    -17962    -18218    -18236    -17986    -18092    -18294    -17992 
    -17970    -18273    -18184    -17975    -18096    -18232    -18083    -17946 
    -18242    -18283    -17921    -18020    -18251    -18108    -17974    -18195 
    -18213    -17990    -18002    -18278    -18192    -17959    -18151    -18189 
    -18017    -18056    -18245    -18152    -17974    -18098    -18261    -18016 
    -18017    -18275    -18130    -17926    -18107    -18281    -18064    -18013 
    -18247    -18213    -17875    -18130    -18338    -18023    -17971    -18190 
    -18148    -17987    -18140    -18284    -18062    -17892    -18226    -18229 
    -17999    -18102    -18204    -18046    -17981    -18207    -18313    -17999 
    -17934    -18289    -18137    -17968    -18184    -18267    -17980    -17952 
    -18255    -18242    -17992    -18086    -18326    -18037    -17981    -18302 
    -18254    -17969    -18100    -18265    -18049    -18010    -18222    -18283 
    -18046    -18092    -18324    -18191    -17996    -18200    -18233    -17912 
    -18029    -18229    -18096    -18000    -18158    -18235    -18064    -18018 
    -18193    -18075    -17871    -18159    -18298    -18125    -18083    -18139 
    -18003    -17821    -18008    -18265    -18071    -17912    -18151    -18152 
    -18080    -18344    -18541    -18312    -18194    -18443    -18604    -18478 
    -18453    -18554    -18118    -17926    -18248    -18307    -18166    -18293 
    -18517    -18299    -17998    -18087    -18250    -18022    -18097    -18322 
    -17936    -17548    -17623    -17768    -17546    -17262    -17369    -17135 
    -16621    -16828    -17072    -16839    -16683    -16689    -16514    -16389 
    -16622    -17146    -17160    -17079    -17658    -17872    -17973    -18437 
    -18906    -19037    -19047    -19309    -19617    -19510    -19341    -19537 
    -19363    -19311    -19656    -19680    -19299    -19048    -18986    -18772 
    -18503    -18557    -18756    -18389    -18188    -18252    -17958    -17652 
    -17650    -17611    -17271    -17034    -17143    -17233    -17069    -17281 
    -17580    -17579    -17724    -18239    -18529    -18302    -18343    -18379 
    -18152    -18148    -18574    -18846    -18765    -19043    -19537    -19471 
    -19160    -19230    -19040    -18637    -18578    -18570    -18131    -17449 
    -17189    -17234    -17058    -17142    -17737    -17854    -17620    -17666 
    -17709    -17638    -17701    -17968    -18029    -17848    -18030    -18274 
    -17820    -17392    -17612    -17746    -17727    -17782    -17855    -17820 
    -17740    -18250    -18724    -18608    -18720    -18967    -18808    -18904 
    -19311    -19255    -18801    -18279    -18173    -18065    -17840    -18002 
    -17882    -17472    -17505    -17884    -17935    -17959    -18143    -18302 
    -18347    -18515    -19077    -19039    -18581    -18441    -18327    -18049 
    -18043    -18316    -18293    -17854    -17629    -17736    -17535    -17541 
    -17940    -18139    -18042    -18086    -18269    -18097    -17768    -17881 
    -17810    -17192    -16921    -16930    -16879    -16723    -16954    -17251 
    -17132    -17382    -18086    -18205    -17726    -17556    -17453    -17369 
    -17608    -18161    -18382    -18207    -18315    -18477    -18296    -18342 
    -18867    -19267    -19573    -19865    -20156    -19975    -19625    -19598 
    -19405    -18811    -18261    -17918    -17446    -17307    -17521    -17769 
    -17661    -17756    -18433    -18872    -19091    -19486    -19501    -18901 
    -18314    -17824    -17089    -16058    -15596    -15555    -15486    -15917 
    -16708    -16848    -16586    -16665    -16718    -16879    -17217    -18064 
    -18850    -19140    -19672    -20063    -19946    -19875    -20140    -20038 
    -19702    -19588    -19690    -19386    -18949    -19198    -19266    -19026 
    -19015    -19170    -18892    -18441    -18395    -18386    -18140    -18139 
    -18542    -18626    -18377    -18282    -18179    -17828    -17809    -18271 
    -18551    -18292    -18214    -18236    -17799    -17396    -17314    -17147 
    -16624    -16614    -16960    -17118    -17248    -17685    -17803    -17117 
    -16681    -16206    -15634    -15308    -15524    -15940    -16014    -16456 
    -17048    -17376    -17648    -18185    -18452    -18225    -18210    -18437 
    -18480    -18327    -18448    -18633    -18432    -18396    -18595    -18382 
    -17977    -17938    -18138    -18077    -18358    -19254    -19978    -20219 
    -20431    -20411    -19739    -19206    -19214    -19334    -19126    -19162 
    -19264    -18851    -18556    -18646    -18601    -18144    -17967    -18155 
    -18014    -17797    -18068    -18328    -18211    -18085    -18103    -17804 
    -17382    -17345    -17394    -17165    -16962    -17247    -17347    -17167 
    -17443    -17940    -17737    -17257    -17205    -17144    -17223    -17668 
    -18156    -18216    -18275    -18513    -18366    -17848    -17596    -17674 
    -17376    -17206    -17404    -17685    -17856    -18120    -18694    -18766 
    -18681    -19136    -19449    -19425    -19561    -19767    -19853    -19864 
    -20190    -20291    -19678    -19141    -18852    -18301    -17686    -17428 
    -17297    -17069    -16913    -17518    -18157    -18289    -18604    -18774 
    -18652    -18712    -19144    -19220    -18708    -18238    -17936    -17299 
    -16640    -16501    -16329    -15914    -15847    -16259    -16359    -16444 
    -16978    -17482    -17503    -17798    -18443    -18530    -18293    -18165 
    -18404    -18370    -18396    -18884    -19094    -19064    -19317    -19573 
    -19425    -19310    -19276    -19006    -18501    -18381    -18648    -18604 
    -18643    -19054    -19010    -18632    -18514    -18592    -18307    -17694 
    -17376    -16903    -16157    -15951    -16351    -16522    -16735    -17026 
    -16953    -16487    -16035    -16138    -16004    -15836    -15945    -16016 
    -15971    -16173    -16776    -17236    -17717    -18460    -19196    -19273 
    -19293    -19676    -19662    -19230    -18924    -18750    -18292    -17941 
    -18092    -18183    -17886    -18007    -18392    -18294    -18039    -18129 
    -18161    -17823    -17805    -18117    -18191    -18128    -18477    -18715 
    -18700    -19185    -19740    -19844    -19740    -20079    -20693    -21040 
    -21408    -22004    -22270    -22067    -21864    -21522    -20707    -19903 
    -19728    -19476    -18827    -18267    -17663    -16633    -15826    -15661 
    -15441    -15024    -14913    -15198    -15447    -15958    -16986    -17931 
    -18321    -18560    -18728    -18622    -18578    -18713    -18714    -18319 
    -18108    -18157    -17856    -17472    -17655    -18105    -18277    -18319 
    -18417    -18042    -17139    -16688    -16377    -15822    -15754    -16297 
    -16716    -16805    -17121    -17578    -17407    -17158    -17467    -17456 
    -17373    -17883    -18728    -19345    -19940    -20632    -20966    -20797 
    -20603    -20957    -20833    -20695    -21059    -21154    -20898    -20388 
    -19859    -19013    -17992    -17479    -17359    -16650    -16207    -16346 
    -16003    -15530    -15252    -15153    -14989    -14896    -15176    -15278 
    -15061    -15463    -16185    -16514    -16658    -16842    -16631    -15995 
    -15618    -15697    -15748    -15907    -16942    -17913    -18564    -19376 
    -20157    -20536    -20742    -21134    -21222    -20775    -20343    -20260 
    -19759    -19122    -18752    -18399    -17906    -17644    -17895    -18149 
    -18299    -18780    -19333    -19254    -19276    -19474    -19406    -19037 
    -18901    -19050    -18698    -18560    -18952    -19277    -19358    -19873 
    -20798    -21771    -23158    -25025    -26833    -28053    -29115    -30138 
    -30428    -30307    -30554    -30548    -30186    -30010    -30103    -30007 
    -29566    -29485    -29443    -29003    -28797    -28882    -28536    -27954 
    -27464    -26873    -25774    -24321    -23039    -21395    -19384    -17906 
    -16682    -15026    -13558    -12424    -11407    -10358     -9418     -8621 
     -6962     -4685     -2366       317      3410      6276      9112     12067 
     14887     17280     19143     20936     21892     22110     22038     21113 
     18836     15716     12235      8110      3315     -1584     -5968    -10334 
    -14035    -16164    -17317    -17915    -17838    -17616    -17736    -18466 
    -19846    -21660    -24445    -27550    -30584    -34035    -37825    -41760 
    -45671    -49633    -52975    -55172    -56546    -57490    -57373    -55799 
    -53442    -50048    -45409    -40226    -34755    -28674    -22153    -15932 
    -10454     -5762     -2604     -1312     -1103     -1542     -3029     -5092 
     -6855     -8448     -9643     -9844     -9027     -8083     -7378     -6741 
     -6965     -8435    -10776    -14198    -18421    -23021    -27959    -32610 
    -36703    -40172    -42981    -44953    -45719    -45419    -43807    -41166 
    -37606    -32793    -27463    -22187    -16964    -12147     -8681     -6482 
     -5132     -5455     -7435     -9786    -12037    -14061    -15159    -14774 
    -13471    -11728     -9191     -6319     -4006     -2421     -1461     -1506 
     -2872     -5158     -7761    -10991    -14560    -17782    -20731    -23603 
    -26270    -27911    -29245    -30552    -30772    -30209    -29787    -29178 
    -27670    -25913    -24773    -23401    -21101    -19605    -18611    -17235 
    -16308    -16303    -17324    -19263    -22655    -27123    -31441    -35237 
    -38588    -40760    -41361    -40660    -38484    -34730    -29979    -24908 
    -19579    -14231     -9685     -6431     -4108     -2992     -3249     -4194 
     -5303     -6712     -8210     -8966     -8945     -8377     -7259     -5634 
     -4009     -2878     -1964     -1156      -778      -606      -340       -13 
      -262      -668      -830     -1511     -2574     -3521     -4173     -5142 
     -6090     -6227     -6087     -6649     -7483     -8854    -11398    -14368 
    -17751    -21255    -24869    -28043    -30501    -32588    -34113    -34963 
    -35573    -36324    -36445    -36234    -35998    -35470    -34407    -32865 
    -31093    -28799    -26234    -24063    -22403    -21093    -20613    -20922 
    -21756    -22616    -23286    -23733    -23318    -22427    -21596    -20758 
    -19985    -19619    -19687    -20072    -20621    -21675    -22687    -22863 
    -22955    -23139    -22673    -21861    -21489    -20820    -19786    -18735 
    -17980    -17032    -15450    -14411    -13334    -11736    -10161     -8609 
     -6833     -5216     -4029     -3200     -2761     -2689     -3361     -4400 
     -5607     -7295     -8874     -9606     -9929    -10043     -9891     -9515 
     -9622    -10652    -11694    -12918    -14642    -16397    -17472    -18682 
    -20252    -21271    -22244    -23611    -25181    -26573    -28101    -29824 
    -31111    -31795    -32321    -32376    -31595    -30542    -29500    -28128 
    -26806    -26019    -25294    -24645    -24286    -24622    -25118    -25346 
    -25745    -26051    -25927    -25741    -25828    -25595    -25098    -24563 
    -24003    -23299    -22755    -22942    -23341    -23826    -24794    -25940 
    -26701    -26977    -26848    -26166    -24719    -23071    -21468    -19408 
    -17102    -15533    -14311    -13187    -12772    -12835    -12968    -12870 
    -13083    -12960    -12088    -10984     -9677     -8014     -6423     -5694 
     -5261     -5055     -5465     -6648     -7740     -8650     -9737    -10408 
    -10368     -9906     -9638     -9063     -8386     -8193     -8478     -8460 
     -8458     -9060     -9497     -9868    -10317    -10783    -10579     -9884 
     -9481     -9068     -8342     -7870     -7942     -7991     -8571     -9933 
    -11477    -12790    -13599    -14371    -14746    -14324    -14311    -14843 
    -15532    -16706    -18604    -20931    -23212    -25697    -28284    -30395 
    -31877    -33448    -34663    -35100    -35534    -35978    -35990    -35875 
    -36026    -35883    -35395    -34862    -34464    -33388    -31989    -31010 
    -29865    -28629    -27647    -27068    -26344    -25555    -25017    -24541 
    -23709    -22913    -22364    -21496    -20540    -19611    -18722    -17347 
    -15939    -14920    -13577    -12061    -10836     -9812     -8335     -6967 
     -6176     -5466     -4854     -4836     -5398     -5851     -6456     -7859 
     -9562    -11378    -13749    -16354    -18739    -20813    -22847    -24299 
    -24624    -24346    -23572    -21908    -19833    -17952    -16177    -14649 
    -13645    -13582    -13822    -13898    -14400    -14984    -14962    -14616 
    -14349    -13983    -13392    -12982    -13038    -12742    -12182    -12055 
    -11812    -11278    -11319    -11846    -12419    -13471    -15151    -17226 
    -19220    -21656    -24524    -26821    -28942    -31163    -32858    -33934 
    -34906    -35725    -35930    -35379    -34461    -32886    -30338    -27537 
    -24869    -22278    -19851    -18133    -17091    -15973    -14830    -14152 
