Raw acceleration counts   (Format v01.20 with 13 text lines)
Record of Southern PR Fault Zone  of  Sun  Jul  18 , 2021  03:52 UTC
Hypocenter 17.9443    -67.0966  H= 11 km Ml: 4.46 
Origin: 2021/07/18 03:52:25    UTC
Statn No: 54          Code: PR-GNC1  Guanica OMME 
Coords: 17.972204  -66.908646 Site Geology:
Recorder: Unk            ( 1 Chns of  3  at Sta) Sensor: (see comment)  
Rcrd start time: 2021/07/18 3:51:25 UTC (Q=?) RcrdId:
Sta Chan: 90 deg       Location:
Raw record length = 133 sec,   Uncor max =  21554    , at  Unk sec. 
Processed 2022-03-11 14:01:12 AST
No filtering!
Values used when parameter of data value is unknown/unspecified:   -999, -999.000
 100 Integer-header values follow on  10 lines, Format = (10I8)
       0       1      51     120       1    -999    -999       0    -999    -999
      42    -999    -999    -999    -999       1    -999    -999       1    -999
    -999    -999    -999    -999    -999    -999    -999    -999    -999     109
       3    -999    -999    -999      24      24    -999    -999    -999    2021
    -999       7      18       3      52       5       8    -999    -999    -999
    -999      20    -999      90    -999    -999    -999    -999    -999    -999
    -999    -999    -999    -999    -999    -999    -999    -999    -999    -999
    -999    -999    -999    -999       1       0    -999    -999    -999    -999
    -999    -999    -999    -999    -999    -999    -999    -999    -999    -999
    -999    -999    -999    -999    -999    -999    -999    -999    -999    -999
 100 Real-header values follow on  20 lines, Format = (5F15.6)
      17.972204     -66.908646       3.000000    -999.000000    -999.000000
    -999.000000    -999.000000    -999.000000    -999.000000      17.944300
     -67.096600      11.000000    -999.000000    -999.000000       4.460000
    -999.000000      20.121995      81.129693    -999.000000    -999.000000
    -999.000000       0.298024    -999.000000      60.000000      73.325000
      80.000000    -999.000000    -999.000000    -999.000000      25.310000
    -999.000000    -999.000000    -999.000000       0.005000     133.325000
    -999.000000    -999.000000    -999.000000    -999.000000     210.000000
       0.697089       5.000000    -999.000000    -999.000000    -999.000000
    -999.000000       1.000000    -999.000000    -999.000000       0.000000
    -999.000000    -999.000000    -999.000000    -999.000000    -999.000000
    -999.000000    -999.000000    -999.000000    -999.000000    -999.000000
    -999.000000       5.000000     133.325000   21554.000000    -999.000000
      -0.000000    -999.000000    -999.000000    -999.000000    -999.000000
    -999.000000    -999.000000    -999.000000    -999.000000    -999.000000
    -999.000000    -999.000000    -999.000000    -999.000000    -999.000000
    -999.000000    -999.000000    -999.000000    -999.000000    -999.000000
    -999.000000    -999.000000    -999.000000    -999.000000    -999.000000
    -999.000000    -999.000000    -999.000000    -999.000000    -999.000000
    -999.000000    -999.000000    -999.000000    -999.000000    -999.000000
    3 Comment line(s) follow, each starting with a |
| RcrdId: GNC1.HNE.PR.01 
| Sensor: EPISENSOR ES-T s/n: 101513 
|<SCNL> GNC1.HNE.PR.01     <AUTH> 2022-03-11 14:01:12.134764
   26666 raw accel.   pts approx   133 secs, units=volts (51),Format=(8I10)
[...]
    -23700    -23692    -23670    -23710    -23644    -23671    -23664    -23686 
    -23727    -23671    -23639    -23671    -23669    -23702    -23727    -23663 
    -23719    -23629    -23669    -23762    -23675    -23666    -23652    -23641 
    -23657    -23677    -23688    -23696    -23604    -23655    -23733    -23673 
    -23671    -23707    -23681    -23644    -23678    -23734    -23740    -23634 
    -23659    -23700    -23666    -23674    -23702    -23660    -23607    -23662 
    -23691    -23704    -23664    -23665    -23650    -23652    -23699    -23694 
    -23711    -23630    -23651    -23722    -23684    -23678    -23714    -23659 
    -23624    -23669    -23679    -23684    -23641    -23643    -23649    -23667 
    -23696    -23691    -23661    -23682    -23660    -23641    -23716    -23692 
    -23674    -23682    -23642    -23673    -23721    -23672    -23704    -23648 
    -23624    -23691    -23689    -23708    -23676    -23650    -23684    -23688 
    -23688    -23750    -23667    -23621    -23679    -23713    -23692    -23667 
    -23701    -23659    -23628    -23681    -23730    -23653    -23635    -23664 
    -23652    -23700    -23687    -23702    -23702    -23609    -23686    -23760 
    -23663    -23701    -23686    -23639    -23682    -23672    -23743    -23694 
    -23593    -23680    -23702    -23636    -23719    -23659    -23624    -23685 
    -23643    -23746    -23701    -23642    -23701    -23660    -23656    -23736 
    -23675    -23659    -23706    -23640    -23708    -23727    -23678    -23669 
    -23659    -23664    -23687    -23676    -23684    -23683    -23644    -23676 
    -23660    -23724    -23722    -23638    -23685    -23660    -23651    -23727 
    -23690    -23683    -23679    -23628    -23739    -23683    -23669    -23716 
    -23598    -23623    -23702    -23700    -23665    -23658    -23637    -23662 
    -23658    -23720    -23721    -23633    -23617    -23656    -23745    -23690 
    -23662    -23706    -23644    -23651    -23734    -23704    -23691    -23611 
    -23638    -23737    -23662    -23699    -23712    -23625    -23656    -23696 
    -23681    -23712    -23654    -23642    -23700    -23642    -23710    -23733 
    -23647    -23697    -23666    -23657    -23723    -23674    -23686    -23689 
    -23635    -23700    -23705    -23674    -23704    -23655    -23652    -23677 
    -23675    -23742    -23666    -23640    -23709    -23647    -23710    -23717 
    -23667    -23661    -23644    -23676    -23701    -23690    -23687    -23655 
    -23621    -23709    -23707    -23669    -23685    -23661    -23645    -23671 
    -23690    -23760    -23655    -23601    -23725    -23689    -23689    -23695 
    -23684    -23622    -23648    -23700    -23719    -23685    -23640    -23676 
    -23659    -23694    -23707    -23717    -23622    -23622    -23708    -23705 
    -23696    -23681    -23678    -23651    -23661    -23690    -23740    -23650 
    -23638    -23677    -23718    -23682    -23660    -23728    -23622    -23677 
    -23678    -23669    -23713    -23650    -23644    -23687    -23670    -23706 
    -23712    -23649    -23685    -23666    -23670    -23674    -23716    -23664 
    -23644    -23684    -23658    -23702    -23696    -23692    -23636    -23651 
    -23676    -23697    -23717    -23667    -23684    -23660    -23658    -23734 
    -23714    -23624    -23667    -23683    -23664    -23698    -23681    -23715 
    -23653    -23624    -23730    -23715    -23652    -23668    -23681    -23665 
    -23673    -23708    -23715    -23621    -23654    -23704    -23669    -23685 
    -23680    -23648    -23656    -23648    -23698    -23738    -23631    -23673 
    -23694    -23644    -23685    -23723    -23669    -23661    -23648    -23685 
    -23737    -23669    -23692    -23673    -23646    -23665    -23699    -23687 
    -23682    -23643    -23675    -23705    -23677    -23712    -23677    -23642 
    -23662    -23681    -23667    -23706    -23673    -23679    -23659    -23690 
    -23724    -23696    -23723    -23671    -23683    -23689    -23739    -23747 
    -23711    -23698    -23748    -23770    -23766    -23837    -23791    -23730 
    -23764    -23816    -23769    -23750    -23757    -23794    -23809    -23870 
    -23957    -23923    -23870    -23818    -23854    -23748    -23679    -23707 
    -23636    -23665    -23790    -23840    -23862    -23822    -23722    -23742 
    -23666    -23659    -23782    -23813    -23875    -24010    -24092    -24100 
    -24030    -23967    -23962    -23885    -24002    -24217    -24344    -24504 
    -24639    -24704    -24732    -24681    -24580    -24506    -24322    -24331 
    -24427    -24362    -24381    -24254    -23935    -23727    -23424    -23018 
    -22735    -22296    -21981    -21790    -21608    -21691    -21703    -21588 
    -21626    -21555    -21442    -21595    -21731    -22042    -22356    -22709 
    -23236    -23664    -24124    -24499    -24514    -24381    -24247    -23955 
    -23893    -23951    -24183    -24422    -24307    -24199    -24023    -23676 
    -23363    -23109    -22761    -22527    -22365    -22474    -22846    -23122 
    -23326    -23298    -23096    -23061    -23189    -23248    -23386    -23580 
    -23921    -24202    -24347    -24524    -24540    -24458    -24384    -24440 
    -24467    -24451    -24399    -24472    -24617    -24733    -24900    -24803 
    -24503    -24131    -23790    -23491    -23363    -23403    -23410    -23376 
    -23326    -23314    -23396    -23536    -23566    -23519    -23299    -23181 
    -23276    -23369    -23652    -23881    -23873    -23914    -23957    -23962 
    -23956    -23794    -23714    -23719    -23719    -23948    -24170    -24159 
    -24251    -24331    -24360    -24555    -24683    -24696    -24550    -24453 
    -24699    -24974    -25024    -24957    -24670    -24290    -24050    -23867 
    -23792    -23654    -23455    -23367    -23185    -22950    -22871    -22791 
    -22775    -22851    -22765    -22600    -22286    -22040    -22261    -22733 
    -23237    -23743    -23894    -23840    -23746    -23446    -23380    -23233 
    -23179    -23422    -23594    -23957    -24293    -24351    -24276    -24109 
    -23909    -23942    -24001    -24229    -24586    -24657    -24697    -24681 
    -24423    -24061    -23612    -23069    -22665    -22473    -22626    -22934 
    -23369    -23716    -23700    -23621    -23537    -23446    -23308    -23323 
    -23534    -23748    -23951    -24373    -24701    -24789    -24902    -24963 
    -25096    -25279    -25611    -25945    -25991    -25819    -25462    -24710 
    -23716    -22570    -21371    -20574    -20190    -20292    -20742    -21219 
    -21581    -21869    -21852    -21673    -21528    -21385    -21502    -21735 
    -22128    -22592    -22763    -22848    -23125    -23196    -23272    -23412 
    -23465    -23644    -23866    -24361    -24996    -25494    -25966    -26404 
    -26636    -26828    -26799    -26545    -26292    -26112    -26115    -25924 
    -25541    -24911    -24040    -23158    -22480    -21988    -21704    -21601 
    -21482    -21575    -21669    -21903    -22141    -22106    -22149    -22247 
    -22326    -22667    -23206    -23677    -24182    -24608    -24922    -25081 
    -25035    -24944    -24895    -24800    -24863    -25031    -25007    -24860 
    -24622    -24387    -24108    -23860    -23661    -23516    -23388    -23451 
    -23778    -24080    -24354    -24504    -24493    -24210    -23857    -23501 
    -23097    -22877    -22872    -23069    -23237    -23361    -23402    -23328 
    -23297    -23419    -23700    -23975    -24161    -24290    -24277    -24046 
    -23678    -23263    -22669    -21927    -21454    -21157    -21099    -21201 
    -21450    -21875    -22234    -22715    -23176    -23545    -23761    -23899 
    -23873    -23796    -23806    -23882    -24195    -24642    -25228    -25741 
    -26110    -26264    -26097    -25617    -24976    -24273    -23454    -22860 
    -22636    -22534    -22562    -22709    -22829    -22861    -22825    -22959 
    -23235    -23555    -23913    -24327    -24541    -24623    -24736    -24701 
    -24652    -24544    -24633    -24840    -24889    -24898    -24887    -24843 
    -24864    -24919    -24769    -24445    -24018    -23634    -23198    -22906 
    -22919    -22992    -23143    -23282    -23465    -23722    -23880    -24058 
    -24427    -24662    -24856    -25079    -25207    -25289    -25239    -25022 
    -24607    -24136    -23700    -23338    -22802    -22352    -22066    -22002 
    -22129    -22159    -22287    -22212    -22192    -22288    -22216    -22073 
    -21888    -21647    -21584    -21803    -22087    -22265    -22218    -22163 
    -21968    -21824    -21919    -22120    -22414    -22962    -23678    -24385 
    -24960    -25267    -25557    -25414    -25260    -25217    -24974    -24699 
    -24367    -24097    -23950    -24015    -24242    -24517    -24498    -24440 
    -24479    -24609    -24802    -25074    -25303    -25212    -25111    -25085 
    -24807    -24091    -23348    -22628    -22099    -21811    -21722    -22036 
    -22402    -22781    -23253    -23569    -23710    -23944    -24028    -23972 
    -23796    -23589    -23560    -23409    -23214    -22863    -22263    -21471 
    -20731    -20242    -20096    -20213    -20432    -20839    -21307    -21912 
    -22541    -23093    -23704    -24297    -24664    -24929    -25193    -25468 
    -25831    -26300    -26832    -27171    -27253    -27227    -27194    -27118 
    -27142    -27126    -26927    -26582    -26223    -25904    -25408    -24957 
    -24398    -23634    -22928    -22319    -21774    -21299    -21167    -21447 
    -21951    -22413    -22811    -22955    -22857    -22837    -22995    -23298 
    -23501    -23751    -24126    -24508    -25059    -25556    -25638    -25463 
    -25034    -24713    -24515    -24285    -24344    -24425    -24430    -24449 
    -24328    -23869    -23176    -22336    -21806    -21689    -21754    -22211 
    -22591    -22822    -23157    -23389    -23657    -23969    -24215    -24530 
    -24551    -24415    -24484    -24452    -24438    -24360    -24061    -23816 
    -23633    -23616    -23990    -24463    -24980    -25444    -25672    -25844 
    -25850    -25630    -25391    -25199    -24931    -24812    -24652    -24489 
    -24376    -24062    -23944    -23684    -23153    -22669    -22146    -21620 
    -21277    -20873    -20528    -20319    -20106    -20362    -20664    -21061 
    -21738    -22353    -22985    -23589    -24048    -24428    -24681    -24909 
    -25310    -25481    -25612    -25755    -25624    -25377    -24951    -24378 
    -23933    -23461    -23295    -23505    -23650    -23971    -24258    -24380 
    -24421    -24324    -24092    -23797    -23426    -23203    -23072    -22904 
    -22879    -22889    -22900    -22737    -22531    -22361    -22221    -22032 
    -21762    -21355    -20938    -20658    -20313    -20039    -19645    -19226 
    -18814    -18621    -18889    -19363    -20049    -20952    -22079    -23365 
    -24820    -26264    -27469    -28349    -28777    -28789    -28513    -27839 
    -27081    -26022    -24393    -22533    -20281    -17691    -14942    -12186 
     -9394     -6719     -4275     -2308      -759       443       983      1355 
      1578      1553      1382      1014       393      -706     -2437     -4601 
     -7425    -11213    -15648    -20832    -26607    -32845    -39543    -46357 
    -53090    -59620    -65386    -70129    -73887    -76329    -77902    -78477 
    -77968    -76686    -74617    -71990    -68595    -64454    -59952    -55042 
    -49672    -44671    -40287    -36261    -32807    -29925    -27380    -25084 
    -22818    -20656    -18692    -16567    -14575    -12651    -10581     -8179 
     -5204     -1627      2454      6662     10830     14561     17628     19896 
     21231     21554     20595     18540     15860     12603      8940      5246 
      1404     -2721     -7013    -11433    -16235    -21377    -26651    -32096 
    -37893    -43848    -49659    -55123    -59978    -63994    -66523    -67518 
    -67012    -65008    -61721    -57545    -52606    -47062    -41285    -35781 
    -30943    -26523    -22684    -19380    -16931    -14923    -13008    -11832 
    -11483    -10939    -10210     -9851     -8736     -7042     -4926     -2114 
      1110      4565      8196     11882     15091     17604     18960     18887 
     17152     13794      9031      2875     -4125    -11816    -19859    -27499 
    -34276    -40105    -45145    -49205    -52303    -54741    -56633    -57793 
    -58356    -58717    -58629    -58240    -57720    -56927    -55971    -54744 
    -53224    -51160    -48237    -44944    -41748    -37949    -33418    -29248 
    -25426    -21491    -17865    -14843    -12138     -9447     -6855     -4553 
     -2314      -305      1369      2916      4355      5816      6855      7577 
      8040      8029      7594      6767      5335      3339      1172     -1544 
     -4709     -8387    -12594    -17214    -22378    -27793    -33190    -38641 
    -44063    -49027    -53499    -57200    -60193    -62700    -64825    -66439 
    -67447    -67858    -67480    -66218    -63927    -60964    -57306    -53145 
    -48449    -43822    -39533    -35030    -30729    -26900    -23441    -19838 
    -16732    -14177    -11765     -9626     -7729     -5950     -4144     -2290 
      -110      2409      5235      8020     10668     13104     14991     16232 
     16704     16114     14294     11247      6956      1323     -5315    -12541 
    -20238    -27829    -34888    -40838    -45543    -48953    -50810    -51426 
    -50910    -49570    -47670    -45471    -43253    -41111    -39218    -37941 
    -37291    -37252    -37609    -38007    -38160    -37718    -36786    -34800 
    -31707    -27878    -23862    -19541    -14970    -11220     -8122     -5468 
     -3438     -2351     -1926     -1914     -2178     -2559     -3113     -3836 
     -4813     -5980     -7556     -9609    -12157    -15043    -18576    -22382 
    -25792    -28939    -31829    -34417    -36634    -38862    -41029    -42923 
    -44269    -45178    -45773    -45794    -45329    -44395    -42968    -40933 
    -38488    -35912    -33166    -30167    -27482    -25111    -23027    -21402 
    -20122    -19246    -18557    -17833    -16935    -16145    -15281    -14227 
    -12961    -11686    -10547     -9357     -8178     -6932     -5857     -4959 
     -4088     -3376     -3204     -3422     -3835     -4509     -5431     -6615 
     -7867     -9242    -10731    -12540    -14791    -17426    -20441    -23796 
    -27429    -31057    -34513    -37683    -40399    -42583    -44127    -45098 
    -45674    -45702    -45592    -45185    -44514    -43943    -43174    -42446 
    -41786    -41041    -40108    -39300    -38714    -38098    -37268    -36592 
    -36107    -35290    -34332    -33037    -31294    -29033    -26508    -24046 
    -21842    -20077    -18940    -18446    -18181    -18154    -18133    -18259 
    -18395    -18301    -18191    -18085    -17920    -17803    -17896    -17909 
    -17795    -17646    -17589    -17576    -17833    -18524    -19488    -20789 
    -22373    -23970    -25192    -25841    -25944    -25569    -24559    -23294 
    -21935    -20413    -18926    -17584    -16398    -15304    -14222    -13040 
    -11991    -10816     -9697     -8942     -8396     -8125     -8286     -8659 
     -9269    -10164    -11049    -12051    -13089    -14446    -15991    -17631 
    -19534    -21522    -23448    -25332    -26995    -28229    -29241    -29881 
    -30315    -30592    -30766    -30847    -30831    -30840    -30749    -30652 
    -30429    -30022    -29541    -29020    -28242    -27321    -26323    -24987 
    -23498    -21998    -20601    -19282    -17963    -16805    -15812    -14942 
    -14499    -14472    -14735    -15417    -16485    -17726    -19046    -20457 
    -21717    -22642    -23238    -23867    -24471    -25163    -26275    -27598 
    -29095    -30594    -32350    -34480    -36565    -38750    -41061    -43177 
    -45153    -46965    -48493    -49583    -50052    -50008    -49507    -48574 
    -47478    -46361    -44999    -43581    -41998    -40166    -38215    -35886 
    -33299    -30373    -27150    -23995    -20928    -18020    -15519    -13276 
    -11311     -9528     -7727     -6318     -5287     -4705     -4741     -5287 
