Acceleration counts       (Format v01.20 with 13 text lines)
Record of Southern PR Fault Zone  of  Sun  Jul  18 , 2021  03:52 UTC
Hypocenter 17.9443    -67.0966  H= 11 km Ml: 4.46 
Origin: 2021/07/18 03:52:25    UTC
Statn No: 54          Code: PR-GNC1  Guanica OMME 
Coords: 17.972204  -66.908646 Site Geology:
Recorder: Unk            ( 3 Chns of  3  at Sta) Sensor: (see comment)  
Rcrd start time: 2021/07/18 3:51:25 UTC (Q=?) RcrdId:
Sta Chan: 0 deg       Location:
Raw record length = 190 sec,   Uncor max =  0.132705759152    , at  Unk sec. 
Processed 2022-03-14 09:53:22 AST
No filtering!
Values used when parameter of data value is unknown/unspecified:   -999, -999.000
 100 Integer-header values follow on  10 lines, Format = (10I8)
       0       1      50     120       1    -999    -999       0    -999    -999
      42    -999    -999    -999    -999       1    -999    -999       1    -999
    -999    -999    -999    -999    -999    -999    -999    -999    -999     109
       3    -999    -999    -999      24      24    -999    -999    -999    2021
    -999       7      18       3      52       5       8    -999    -999    -999
    -999      20    -999       0    -999    -999    -999    -999    -999    -999
    -999    -999    -999    -999    -999    -999    -999    -999    -999    -999
    -999    -999    -999    -999       1       0    -999    -999    -999    -999
    -999    -999    -999    -999    -999    -999    -999    -999    -999    -999
    -999    -999    -999    -999    -999    -999    -999    -999    -999    -999
 100 Real-header values follow on  20 lines, Format = (5F15.6)
      17.972204     -66.908646       3.000000    -999.000000    -999.000000
    -999.000000    -999.000000    -999.000000    -999.000000      17.944300
     -67.096600      11.000000    -999.000000    -999.000000       4.460000
    -999.000000      20.121995      81.129693    -999.000000    -999.000000
    -999.000000       0.298024    -999.000000      60.000000     130.995000
      80.000000    -999.000000    -999.000000    -999.000000      25.310000
    -999.000000    -999.000000    -999.000000       0.005000     190.995000
    -999.000000    -999.000000    -999.000000    -999.000000     200.000000
       0.697089       5.000000    -999.000000    -999.000000    -999.000000
    -999.000000       1.000000    -999.000000    -999.000000       0.000000
    -999.000000    -999.000000    -999.000000    -999.000000    -999.000000
    -999.000000    -999.000000    -999.000000    -999.000000    -999.000000
    -999.000000       5.000000     190.995000       0.132706    -999.000000
      -0.000000    -999.000000    -999.000000    -999.000000    -999.000000
    -999.000000    -999.000000    -999.000000    -999.000000    -999.000000
    -999.000000    -999.000000    -999.000000    -999.000000    -999.000000
    -999.000000    -999.000000    -999.000000    -999.000000    -999.000000
    -999.000000    -999.000000    -999.000000    -999.000000    -999.000000
    -999.000000    -999.000000    -999.000000    -999.000000    -999.000000
    -999.000000    -999.000000    -999.000000    -999.000000    -999.000000
    3 Comment line(s) follow, each starting with a |
| RcrdId: GNC1.PR.01 
| Sensor: EPISENSOR ES-T s/n: 101513 
|<SCNL> GNC1.PR.01     <AUTH> 2022-03-14 09:53:22.492736
   38200 acceleration pts, approx   190 secs, units=counts (50),Format=(8F11.6)
[...]
    0.031692   0.031696   0.031664   0.031640   0.031673   0.031767   0.031701   0.031664 
    0.031729   0.031673   0.031720   0.031654   0.031570   0.031626   0.031678   0.031729 
    0.031593   0.031612   0.031814   0.031767   0.031593   0.031640   0.031790   0.031767 
    0.031650   0.031593   0.031668   0.031687   0.031725   0.031692   0.031593   0.031757 
    0.031729   0.031607   0.031748   0.031739   0.031589   0.031584   0.031720   0.031790 
    0.031607   0.031546   0.031720   0.031748   0.031696   0.031654   0.031715   0.031757 
    0.031711   0.031692   0.031626   0.031743   0.031748   0.031528   0.031645   0.031748 
    0.031701   0.031654   0.031645   0.031711   0.031757   0.031828   0.031621   0.031579 
    0.031804   0.031715   0.031631   0.031574   0.031645   0.031748   0.031659   0.031692 
    0.031696   0.031739   0.031729   0.031593   0.031635   0.031781   0.031734   0.031560 
    0.031631   0.031739   0.031762   0.031584   0.031593   0.031861   0.031678   0.031645 
    0.031711   0.031692   0.031814   0.031687   0.031584   0.031711   0.031814   0.031650 
    0.031528   0.031640   0.031748   0.031720   0.031664   0.031692   0.031678   0.031753 
    0.031711   0.031631   0.031678   0.031621   0.031626   0.031593   0.031603   0.031692 
    0.031570   0.031457   0.031589   0.031584   0.031406   0.031377   0.031373   0.031406 
    0.031321   0.031134   0.031054   0.030974   0.031016   0.030843   0.030603   0.030725 
    0.030697   0.030486   0.030406   0.030416   0.030270   0.029886   0.029661   0.029684 
    0.029881   0.030092   0.030012   0.029984   0.030102   0.030087   0.029933   0.029679 
    0.029623   0.029604   0.029623   0.029975   0.030876   0.031983   0.032194   0.031767 
    0.031321   0.031368   0.032081   0.032588   0.032785   0.033043   0.033925   0.035337 
    0.036523   0.036711   0.035449   0.033840   0.033141   0.033540   0.034328   0.034741 
    0.034731   0.034633   0.034928   0.035543   0.035384   0.034000   0.032485   0.031917 
    0.032405   0.033038   0.033216   0.033366   0.033967   0.034656   0.034122   0.032499 
    0.030876   0.029520   0.028352   0.027296   0.027165   0.028516   0.030721   0.032574 
    0.032841   0.031523   0.030421   0.031345   0.033638   0.035252   0.035393   0.034858 
    0.034802   0.034928   0.034516   0.034717   0.036129   0.037593   0.037921   0.036805 
    0.035538   0.034539   0.033122   0.031162   0.028830   0.027390   0.027573   0.028305 
    0.027723   0.025800   0.024163   0.023567   0.024266   0.025345   0.025777   0.025397 
    0.024214   0.022784   0.022371   0.024416   0.027878   0.029431   0.027386   0.024332 
    0.024411   0.027939   0.031288   0.032147   0.032503   0.034924   0.037738   0.037616 
    0.035294   0.034150   0.035182   0.035881   0.034258   0.032527   0.033882   0.038034 
    0.041407   0.041364   0.039305   0.037518   0.036453   0.034539   0.029853   0.024144 
    0.022024   0.025622   0.032062   0.037021   0.037809   0.034262   0.028418   0.022104 
    0.017854   0.019097   0.026532   0.036303   0.043607   0.047420   0.048645   0.046895 
    0.041257   0.032386   0.023469   0.018909   0.021025   0.028990   0.039310   0.047434 
    0.050704   0.047510   0.037823   0.025265   0.016512   0.015583   0.019533   0.023924 
    0.027381   0.031162   0.034938   0.035679   0.032625   0.027761   0.025894   0.030491 
    0.038813   0.046834   0.050732   0.048837   0.043109   0.034380   0.024125   0.016315 
    0.013880   0.015808   0.019988   0.025823   0.031471   0.034572   0.034572   0.032822 
    0.031002   0.030336   0.031570   0.033259   0.034506   0.036204   0.036692   0.033287 
    0.026405   0.019725   0.018374   0.023637   0.030876   0.035923   0.039652   0.044010 
    0.047101   0.045689   0.040281   0.033718   0.027325   0.021254   0.017413   0.018717 
    0.023872   0.027789   0.027972   0.026452   0.025368   0.024491   0.024454   0.026630 
    0.030055   0.032386   0.033019   0.032935   0.030782   0.024655   0.017080   0.013960 
    0.018595   0.027859   0.035862   0.039971   0.043518   0.049977   0.057262   0.060733 
    0.057890   0.050971   0.043335   0.035834   0.027944   0.020556   0.017084   0.019655 
    0.027001   0.034797   0.038226   0.036992   0.034882   0.034140   0.033765   0.033366 
    0.033995   0.033831   0.029698   0.022394   0.015991   0.014425   0.017178   0.019655 
    0.020743   0.024130   0.031185   0.038794   0.044113   0.047120   0.047819   0.045019 
    0.040074   0.036040   0.034577   0.034483   0.032864   0.030749   0.030238   0.030594 
    0.031204   0.032531   0.034933   0.036275   0.035290   0.034389   0.034117   0.030810 
    0.021827   0.012708   0.010053   0.013669   0.018628   0.022643   0.028497   0.031199 
    0.032414   0.035496   0.033254   0.030308   0.030031   0.032682   0.038587   0.040548 
    0.034731   0.023928   0.018454   0.019800   0.021658   0.024407   0.029182   0.035932 
    0.040088   0.040215   0.040018   0.040511   0.044601   0.049405   0.048701   0.042776 
    0.033451   0.026063   0.025481   0.030050   0.035904   0.039788   0.041815   0.044399 
    0.046651   0.044643   0.038306   0.031476   0.024576   0.017225   0.011000   0.007609 
    0.009086   0.015260   0.025336   0.036359   0.042664   0.044493   0.044198   0.041904 
    0.040506   0.038531   0.034633   0.031790   0.028366   0.023318   0.014260   0.006731 
    0.008655   0.015011   0.024623   0.034839   0.041862   0.047453   0.050864   0.051455 
    0.047918   0.041763   0.035384   0.028821   0.023478   0.020513   0.022235   0.026940 
    0.028549   0.027334   0.027489   0.030829   0.035224   0.037016   0.037171   0.036561 
    0.033193   0.026133   0.018341   0.016085   0.019950   0.025734   0.030355   0.034905 
    0.041557   0.047261   0.049372   0.047430   0.044812   0.043503   0.039108   0.031612 
    0.026006   0.026884   0.032105   0.035449   0.035079   0.032522   0.030256   0.028281 
    0.027536   0.029576   0.034258   0.038845   0.037194   0.028980   0.019087   0.012239 
    0.009068   0.007398   0.008875   0.015780   0.025988   0.033760   0.038376   0.043124 
    0.048959   0.054119   0.054246   0.049198   0.042814   0.037640   0.034539   0.032330 
    0.028877   0.023924   0.020176   0.019997   0.023117   0.025842   0.026293   0.027512 
    0.030979   0.036617   0.042819   0.044892   0.039737   0.030646   0.024806   0.024022 
    0.025101   0.025945   0.026837   0.029919   0.035660   0.041374   0.043002   0.038691 
    0.031363   0.025608   0.023497   0.024308   0.027353   0.030983   0.032485   0.031725 
    0.030022   0.028666   0.028122   0.028225   0.030102   0.034619   0.040703   0.045628 
    0.047045   0.044259   0.037630   0.028516   0.021189   0.020771   0.025462   0.029285 
    0.029820   0.028455   0.027428   0.026701   0.025453   0.024393   0.023684   0.022643 
    0.022742   0.026499   0.033090   0.038531   0.041266   0.044296   0.048687   0.050310 
    0.046065   0.038677   0.032977   0.031893   0.035032   0.037311   0.035097   0.031377 
    0.030059   0.030538   0.030655   0.029806   0.028014   0.025988   0.024909   0.025838 
    0.027920   0.029482   0.030622   0.029299   0.022713   0.013758   0.008129   0.008378 
    0.012525   0.017577   0.023670   0.030876   0.037260   0.042396   0.046853   0.050230 
    0.051248   0.049151   0.045886   0.045750   0.049264   0.049756   0.042063   0.030707 
    0.025462   0.029173   0.034244   0.032658   0.024721   0.017469   0.016216   0.019458 
    0.022052   0.021991   0.021925   0.025078   0.031523   0.037283   0.039042   0.037363 
    0.034511   0.032231   0.029675   0.025298   0.021498   0.023440   0.031434   0.038803 
    0.041346   0.042523   0.046318   0.050859   0.051520   0.047800   0.041866   0.035055 
    0.028994   0.025275   0.024313   0.024097   0.022774   0.021892   0.023774   0.027170 
    0.028943   0.027414   0.022845   0.019786   0.023215   0.032555   0.042204   0.046787 
    0.046520   0.045023   0.043269   0.039272   0.033732   0.030998   0.033254   0.035327 
    0.031645   0.025898   0.024139   0.025636   0.025265   0.021391   0.017544   0.015494 
    0.013482   0.012300   0.016235   0.025495   0.033648   0.035308   0.032020   0.027944 
    0.023619   0.019753   0.020668   0.028225   0.038006   0.043771   0.044357   0.042837 
    0.042476   0.044737   0.047242   0.047402   0.045051   0.040787   0.035759   0.031753 
    0.030345   0.030876   0.031739   0.032288   0.030979   0.027620   0.025209   0.026888 
    0.032555   0.037593   0.038817   0.037748   0.035693   0.032095   0.027611   0.024130 
    0.022240   0.020617   0.016582   0.010362   0.005821   0.005517   0.009326   0.016216 
    0.025988   0.035932   0.041524   0.042382   0.041360   0.040999   0.041552   0.042335 
    0.043672   0.044235   0.041655   0.037222   0.034642   0.034628   0.035534   0.036871 
    0.038287   0.038048   0.035491   0.034056   0.035496   0.036584   0.034914   0.029257 
    0.020387   0.012759   0.010944   0.015625   0.022610   0.028220   0.032128   0.035857 
    0.040637   0.045206   0.046886   0.044601   0.040726   0.037607   0.035046   0.032855 
    0.031861   0.031631   0.030453   0.028624   0.028887   0.033699   0.041697   0.047936 
    0.048330   0.043325   0.037485   0.034009   0.031762   0.028694   0.024876   0.021911 
    0.020466   0.019566   0.019359   0.020940   0.023591   0.025767   0.027231   0.027925 
    0.027132   0.026096   0.026246   0.026049   0.023473   0.019017   0.017422   0.022807 
    0.031490   0.036547   0.037926   0.040952   0.047017   0.051694   0.051314   0.048115 
    0.045563   0.042350   0.037133   0.033038   0.032292   0.032494   0.030350   0.026691 
    0.025110   0.025795   0.025678   0.025148   0.028038   0.033587   0.035960   0.033789 
    0.031415   0.030683   0.029867   0.028188   0.025795   0.022357   0.019336   0.020157 
    0.024806   0.028619   0.028896   0.029445   0.036021   0.047547   0.055343   0.053856 
    0.047843   0.044972   0.046159   0.046806   0.043921   0.039413   0.036158   0.034201 
    0.032288   0.028891   0.024121   0.021362   0.023792   0.031012   0.039169   0.044437 
    0.045267   0.042762   0.040422   0.039624   0.038151   0.034473   0.029693   0.026203 
    0.025936   0.028901   0.033709   0.039033   0.043503   0.045896   0.045755   0.043898 
    0.040703   0.035172   0.027648   0.020227   0.015269   0.013561   0.014420   0.016353 
    0.017750   0.018534   0.018032   0.015625   0.012938   0.012933   0.015724   0.016967 
    0.014650   0.011934   0.012004   0.011779   0.007707   0.000206  -0.006699  -0.006839 
   -0.004428  -0.000966   0.007369   0.014856   0.019491   0.023802   0.029632   0.036190 
    0.041003   0.044704   0.047040   0.047965   0.045333   0.040970   0.041247   0.044141 
    0.046229   0.048893   0.053101   0.059302   0.065903   0.069435   0.071771   0.075364 
    0.075814   0.069275   0.057928   0.047467   0.038756   0.031101   0.026405   0.025232 
    0.029079   0.037405   0.051431   0.066756   0.076865   0.084024   0.089592   0.097486 
    0.104101   0.105480   0.102881   0.092195   0.076171   0.059063   0.040999   0.020129 
   -0.003959  -0.026715  -0.045309  -0.059406  -0.066573  -0.066142  -0.059345  -0.049480 
   -0.037804  -0.018895   0.004053   0.022657   0.036711   0.048293   0.054743   0.059865 
    0.067891   0.070720   0.067924   0.067024   0.067549   0.063918   0.057290   0.051947 
    0.048082   0.042983   0.033817   0.022474   0.014293   0.008871   0.000310  -0.009105 
   -0.016123  -0.022878  -0.033850  -0.048199  -0.059016  -0.065349  -0.068834  -0.071593 
   -0.072085  -0.069500  -0.063857  -0.051933  -0.034333  -0.013092   0.008322   0.028774 
    0.050090   0.070908   0.089263   0.106357   0.120523   0.129042   0.132706   0.131922 
    0.126490   0.116588   0.108116   0.103359   0.099602   0.093809   0.079910   0.065433 
    0.060180   0.060616   0.062905   0.060893   0.052871   0.044404   0.034610   0.024810 
    0.017727   0.011999   0.006553  -0.000056  -0.004930  -0.003382   0.004353   0.014289 
    0.024172   0.032414   0.038883   0.044639   0.048279   0.047777   0.042945   0.040497 
    0.040060   0.034755   0.028131   0.025246   0.026635   0.027925   0.025012   0.022727 
    0.024871   0.025917   0.023042   0.019552   0.020692   0.028563   0.036308   0.040797 
    0.044761   0.047458   0.045544   0.039080   0.033409   0.029970   0.024524   0.015973 
    0.006708  -0.000375  -0.004696  -0.010006  -0.015189  -0.016474  -0.012726  -0.006192 
   -0.000009   0.011094   0.027212   0.039150   0.041449   0.037204   0.033005   0.027118 
    0.018768   0.009982   0.000985  -0.007144  -0.013543  -0.014715  -0.012816  -0.009307 
   -0.001703   0.007186   0.018463   0.032996   0.046431   0.057506   0.067235   0.076063 
    0.083226   0.086885   0.089268   0.093002   0.096759   0.101469   0.107220   0.109828 
    0.109167   0.106995   0.102806   0.100521   0.100146   0.098425   0.093039   0.081594 
    0.069078   0.053758   0.033268   0.011005  -0.008950  -0.020241  -0.027310  -0.029450 
   -0.026766  -0.024186  -0.019772  -0.018979  -0.020959  -0.023060  -0.024191  -0.019378 
   -0.009949   0.002913   0.014321   0.020021   0.020720   0.018459   0.018177   0.016986 
    0.011263   0.009053   0.016550   0.027864   0.031363   0.026217   0.021611   0.021358 
    0.023516   0.021264   0.014626   0.009082   0.000427  -0.010850  -0.020147  -0.025115 
   -0.022756  -0.015912  -0.004902   0.010935   0.027540   0.043025   0.057679   0.073924 
    0.090497   0.102909   0.111048   0.117245   0.123488   0.129108   0.131524   0.128812 
    0.123413   0.118797   0.114402   0.110644   0.108266   0.104537   0.096351   0.085975 
    0.076030   0.066015   0.057431   0.051276   0.046159   0.038723   0.028084   0.016709 
    0.005352  -0.005563  -0.014748  -0.022526  -0.031237  -0.041378  -0.050765  -0.056502 
   -0.058599  -0.058857  -0.055733  -0.048800  -0.038287  -0.025397  -0.015325  -0.009818 
   -0.006319  -0.002026   0.003270   0.008101   0.012759   0.019247   0.029065   0.040431 
    0.050835   0.057163   0.058421   0.057196   0.052824   0.045108   0.035595   0.025284 
    0.014317   0.002904  -0.003668  -0.003232  -0.000624  -0.001675  -0.006586  -0.009569 
   -0.010470  -0.011244  -0.010550  -0.006018   0.004227   0.017750   0.032564   0.049522 
    0.068126   0.086050   0.101539   0.114012   0.123103   0.126973   0.124909   0.121316 
    0.118835   0.116433   0.112647   0.108219   0.106587   0.106943   0.106385   0.101544 
    0.089563   0.072207   0.051506   0.029604   0.011160  -0.000113  -0.004954  -0.005582 
   -0.002205   0.003734   0.008373   0.008458   0.005226   0.003307   0.002261  -0.001853 
   -0.007351  -0.011666  -0.015217  -0.018417  -0.021400  -0.024341  -0.027428  -0.028230 
   -0.026124  -0.021667  -0.014776  -0.007979  -0.003997  -0.004339  -0.005840  -0.006999 
   -0.008134  -0.005896  -0.000164   0.007721   0.018693   0.034042   0.052637   0.068834 
    0.078742   0.085459   0.091885   0.097984   0.104631   0.111667   0.114045   0.107276 
    0.093307   0.076096   0.060086   0.046994   0.036139   0.027611   0.020157   0.013993 
    0.010953   0.010859   0.013974   0.019753   0.023717   0.024529   0.023422   0.021644 
    0.022718   0.028793   0.037757   0.044231   0.045492   0.044156   0.041627   0.036458 
    0.030711   0.027357   0.026030   0.025720   0.028385   0.035379   0.042861   0.047059 
    0.049076   0.053246   0.058805   0.063116   0.065053   0.063055   0.058871   0.053312 
    0.044357   0.031828   0.020692   0.012895   0.006211   0.001173  -0.000211   0.003509 
    0.008031   0.009757   0.009147   0.004527  -0.003593  -0.010784  -0.015091  -0.015302 
   -0.010151  -0.005362  -0.004794  -0.006844  -0.008763  -0.008223  -0.008345  -0.009279 
   -0.006731  -0.000521   0.007660   0.016789   0.026189   0.034835   0.039952   0.041819 
    0.043269   0.045764   0.049860   0.053748   0.057234   0.060757   0.063665   0.067906 
    0.074609   0.081842   0.086275   0.085708   0.083559   0.085482   0.090234   0.093246 
    0.091182   0.081481   0.067216   0.054321   0.046642   0.044948   0.044925   0.042195 
    0.037462   0.032264   0.026344   0.019772   0.013360   0.008871   0.006549   0.004170 
    0.000990  -0.001177   0.000113   0.005310   0.012117   0.016489   0.016155   0.014143 
    0.014894   0.020523   0.029177   0.035688   0.037677   0.036566   0.034825   0.034098 
    0.033592   0.033756   0.035219   0.035140   0.031875   0.025988   0.019200   0.013697 
    0.009499   0.006670   0.005427   0.004489   0.003682   0.004128   0.005929   0.008641 
