Raw acceleration counts   (Format v01.20 with 13 text lines)
Record of Southern PR Fault Zone  of  Sun  Jul  18 , 2021  03:52 UTC
Hypocenter 17.9443    -67.0966  H= 11 km Ml: 4.46 
Origin: 2021/07/18 03:52:25    UTC
Statn No: 54          Code: PR-GNC1  Guanica OMME 
Coords: 17.972204  -66.908646 Site Geology:
Recorder: Unk            ( 3 Chns of  3  at Sta) Sensor: (see comment)  
Rcrd start time: 2021/07/18 3:51:25 UTC (Q=?) RcrdId:
Sta Chan: 0 deg       Location:
Raw record length = 133 sec,   Uncor max =  -7277    , at  Unk sec. 
Processed 2022-03-11 14:01:12 AST
No filtering!
Values used when parameter of data value is unknown/unspecified:   -999, -999.000
 100 Integer-header values follow on  10 lines, Format = (10I8)
       0       1      51     120       1    -999    -999       0    -999    -999
      42    -999    -999    -999    -999       1    -999    -999       1    -999
    -999    -999    -999    -999    -999    -999    -999    -999    -999     109
       3    -999    -999    -999      24      24    -999    -999    -999    2021
    -999       7      18       3      52       5       8    -999    -999    -999
    -999      20    -999       0    -999    -999    -999    -999    -999    -999
    -999    -999    -999    -999    -999    -999    -999    -999    -999    -999
    -999    -999    -999    -999       1       0    -999    -999    -999    -999
    -999    -999    -999    -999    -999    -999    -999    -999    -999    -999
    -999    -999    -999    -999    -999    -999    -999    -999    -999    -999
 100 Real-header values follow on  20 lines, Format = (5F15.6)
      17.972204     -66.908646       3.000000    -999.000000    -999.000000
    -999.000000    -999.000000    -999.000000    -999.000000      17.944300
     -67.096600      11.000000    -999.000000    -999.000000       4.460000
    -999.000000      20.121995      81.129693    -999.000000    -999.000000
    -999.000000       0.298024    -999.000000      60.000000      73.325000
      80.000000    -999.000000    -999.000000    -999.000000      25.310000
    -999.000000    -999.000000    -999.000000       0.005000     133.325000
    -999.000000    -999.000000    -999.000000    -999.000000     210.000000
       0.697089       5.000000    -999.000000    -999.000000    -999.000000
    -999.000000       1.000000    -999.000000    -999.000000       0.000000
    -999.000000    -999.000000    -999.000000    -999.000000    -999.000000
    -999.000000    -999.000000    -999.000000    -999.000000    -999.000000
    -999.000000       5.000000     133.325000   -7277.000000    -999.000000
      -0.000000    -999.000000    -999.000000    -999.000000    -999.000000
    -999.000000    -999.000000    -999.000000    -999.000000    -999.000000
    -999.000000    -999.000000    -999.000000    -999.000000    -999.000000
    -999.000000    -999.000000    -999.000000    -999.000000    -999.000000
    -999.000000    -999.000000    -999.000000    -999.000000    -999.000000
    -999.000000    -999.000000    -999.000000    -999.000000    -999.000000
    -999.000000    -999.000000    -999.000000    -999.000000    -999.000000
    3 Comment line(s) follow, each starting with a |
| RcrdId: GNC1.HNZ.PR.01 
| Sensor: EPISENSOR ES-T s/n: 101513 
|<SCNL> GNC1.HNZ.PR.01     <AUTH> 2022-03-11 14:01:12.190393
   26674 raw accel.   pts approx   133 secs, units=volts (51),Format=(8I10)
[...]
    -30359    -30750    -30402    -30148    -30598    -30737    -30199    -30207 
    -30727    -30504    -30099    -30478    -30680    -30228    -30173    -30718 
    -30558    -30104    -30458    -30734    -30267    -30214    -30681    -30516 
    -30158    -30388    -30688    -30337    -30190    -30623    -30597    -30122 
    -30333    -30697    -30387    -30179    -30489    -30644    -30218    -30334 
    -30743    -30435    -30174    -30556    -30683    -30252    -30320    -30652 
    -30446    -30156    -30505    -30678    -30167    -30210    -30675    -30402 
    -30121    -30504    -30615    -30271    -30226    -30712    -30586    -30097 
    -30508    -30751    -30285    -30252    -30643    -30578    -30202    -30323 
    -30756    -30357    -30071    -30655    -30582    -30079    -30368    -30697 
    -30337    -30150    -30536    -30695    -30177    -30235    -30803    -30446 
    -30062    -30582    -30719    -30186    -30277    -30732    -30505    -30102 
    -30485    -30739    -30253    -30221    -30660    -30505    -30106    -30392 
    -30748    -30356    -30122    -30604    -30554    -30179    -30419    -30643 
    -30371    -30137    -30526    -30684    -30254    -30287    -30655    -30395 
    -30228    -30567    -30598    -30276    -30258    -30681    -30464    -30145 
    -30559    -30630    -30171    -30285    -30692    -30445    -30104    -30450 
    -30733    -30246    -30218    -30696    -30517    -30168    -30439    -30705 
    -30322    -30158    -30643    -30614    -30120    -30396    -30726    -30307 
    -30187    -30627    -30561    -30118    -30370    -30775    -30367    -30093 
    -30620    -30659    -30132    -30348    -30764    -30414    -30065    -30475 
    -30758    -30254    -30180    -30715    -30489    -30122    -30457    -30698 
    -30329    -30138    -30614    -30577    -30147    -30414    -30739    -30332 
    -30168    -30607    -30586    -30192    -30367    -30693    -30355    -30126 
    -30595    -30671    -30162    -30330    -30651    -30370    -30202    -30596 
    -30619    -30183    -30315    -30675    -30504    -30166    -30513    -30654 
    -30195    -30279    -30739    -30441    -30085    -30498    -30640    -30270 
    -30206    -30677    -30546    -30078    -30429    -30772    -30273    -30156 
    -30728    -30580    -30113    -30379    -30808    -30344    -30153    -30631 
    -30548    -30163    -30332    -30742    -30402    -30072    -30515    -30659 
    -30161    -30335    -30718    -30368    -30127    -30542    -30754    -30253 
    -30238    -30686    -30510    -30148    -30511    -30725    -30238    -30168 
    -30647    -30595    -30115    -30384    -30727    -30289    -30153    -30626 
    -30600    -30189    -30351    -30658    -30395    -30176    -30601    -30643 
    -30160    -30357    -30681    -30361    -30192    -30579    -30617    -30181 
    -30315    -30732    -30423    -30162    -30525    -30605    -30215    -30271 
    -30702    -30480    -30122    -30475    -30707    -30226    -30251    -30724 
    -30472    -30124    -30481    -30708    -30289    -30196    -30675    -30598 
    -30052    -30440    -30798    -30258    -30130    -30647    -30557    -30116 
    -30377    -30769    -30396    -30032    -30613    -30712    -30169    -30348 
    -30769    -30426    -30233    -30696    -30886    -30504    -30490    -31040 
    -30910    -30604    -30952    -31203    -30739    -30688    -31226    -31148 
    -30817    -31195    -31709    -31548    -31674    -32313    -32321    -31593 
    -31213    -30823    -29812    -29294    -29769    -30307    -30680    -31562 
    -32333    -32075    -31304    -30662    -29261    -27229    -26040    -25579 
    -25447    -26225    -27900    -28993    -28780    -28075    -27249    -26111 
    -25865    -27594    -29858    -31417    -32700    -33475    -33074    -32563 
    -32932    -33152    -32305    -31591    -31884    -32358    -32993    -33922 
    -33958    -32407    -30876    -30773    -31109    -31088    -30982    -29855 
    -27136    -25088    -25522    -27838    -31131    -34288    -35241    -32907 
    -29076    -26719    -26148    -26486    -27903    -29183    -29171    -29171 
    -30460    -31955    -32285    -31489    -30400    -29165    -29109    -32006 
    -35489    -36638    -35342    -32551    -29187    -26586    -25901    -26635 
    -27153    -27798    -29315    -30539    -31375    -32172    -32719    -32890 
    -33203    -33642    -32897    -30669    -28790    -28327    -28593    -29967 
    -32221    -33602    -33513    -33034    -32552    -31693    -31017    -30973 
    -30607    -29228    -28047    -27564    -27208    -27387    -28152    -28146 
    -27149    -27146    -28875    -30672    -31752    -32373    -32056    -30977 
    -30727    -31949    -33001    -32873    -32312    -31348    -29741    -28624 
    -28849    -29646    -30586    -31849    -32480    -31057    -28701    -27568 
    -27581    -28823    -31698    -34484    -34738    -32198    -28958    -26900 
    -26946    -29875    -33889    -35389    -33702    -30638    -27531    -25473 
    -25700    -28324    -31642    -33805    -34651    -33826    -31556    -30229 
    -30891    -31955    -32469    -32525    -31991    -31006    -30372    -30208 
    -28680    -25546    -23324    -23520    -25789    -29843    -34018    -35201 
    -33090    -29944    -27673    -26535    -26647    -28347    -30422    -32159 
    -34120    -35331    -34035    -30944    -28010    -26416    -26851    -30467 
    -36387    -40833    -42078    -39970    -34867    -28808    -24722    -23891 
    -24329    -24413    -25037    -26273    -27322    -28980    -31078    -31984 
    -31473    -30798    -30462    -29770    -28625    -27567    -26113    -24994 
    -26495    -30147    -33371    -33938    -31675    -27912    -25046    -26172 
    -31139    -36241    -38807    -38265    -34686    -29918    -26946    -27567 
    -30611    -34263    -37608    -38415    -35468    -30823    -26740    -24300 
    -24227    -26388    -29226    -30769    -31664    -32311    -31677    -30021 
    -28711    -28371    -28488    -29282    -30195    -30155    -29323    -29519 
    -31147    -32592    -33561    -34178    -33437    -31861    -31179    -30967 
    -30338    -29233    -28874    -29159    -29143    -29747    -30803    -30746 
    -29786    -29069    -28278    -27613    -28329    -30845    -33353    -34471 
    -34613    -33566    -31194    -29094    -28544    -28701    -29179    -30572 
    -32541    -33612    -33963    -34166    -32985    -30504    -28601    -28251 
    -28880    -30208    -31717    -31744    -29618    -27473    -26958    -27107 
    -27339    -27558    -26695    -24753    -23667    -24369    -26182    -28414 
    -31140    -33552    -34199    -33658    -32747    -30930    -29006    -28876 
    -30516    -33053    -35975    -38551    -39043    -36903    -34114    -31537 
    -29287    -28582    -29501    -29958    -29164    -28293    -28018    -28342 
    -29696    -31907    -32996    -32314    -31103    -29870    -28303    -27147 
    -27225    -27754    -28234    -29815    -32564    -34531    -34875    -33918 
    -31733    -28963    -28064    -29876    -32171    -33103    -32366    -29744 
    -25759    -22876    -22813    -24654    -26683    -28797    -30199    -30007 
    -29485    -30069    -31483    -32969    -34598    -35348    -34262    -32343 
    -31325    -31096    -31087    -31874    -33020    -33139    -32148    -31299 
    -30676    -29679    -28909    -29043    -29949    -31722    -34118    -35286 
    -33578    -30422    -27450    -24418    -22104    -22065    -24122    -26832 
    -29562    -31391    -31059    -29248    -28399    -28969    -29665    -30621 
    -31985    -32971    -32814    -31983    -31163    -30422    -31171    -33874 
    -35372    -34387    -32740    -31531    -31325    -32354    -34709    -36386 
    -35422    -33212    -31043    -28541    -26263    -24964    -24385    -24609 
    -26061    -28876    -30759    -30453    -29705    -29198    -28739    -28767 
    -29641    -30720    -31652    -32824    -33569    -33146    -32964    -33990 
    -34854    -33929    -31960    -30087    -27703    -25821    -25658    -26896 
    -29036    -31558    -33026    -31821    -28829    -26469    -25777    -25831 
    -26568    -27726    -27871    -27341    -27541    -28333    -29275    -30695 
    -32068    -32058    -31249    -31780    -33654    -35884    -37698    -38313 
    -37057    -35297    -35429    -36967    -38115    -37780    -35889    -32097 
    -27504    -25355    -25984    -27122    -28003    -28385    -27694    -26297 
    -26021    -27756    -29463    -30170    -29865    -27621    -23840    -20973 
    -20768    -22740    -25832    -29154    -31198    -31326    -31572    -32777 
    -34077    -35574    -37866    -39983    -40071    -38527    -36406    -33736 
    -31078    -29758    -29654    -29373    -28888    -28752    -27995    -26398 
    -25589    -25851    -25783    -25546    -26539    -28412    -30560    -32975 
    -34324    -33164    -30098    -26809    -23941    -22112    -23204    -27840 
    -33945    -39229    -42110    -41203    -36855    -31920    -28778    -27125 
    -26873    -28439    -30680    -32305    -33585    -34584    -34174    -32164 
    -29695    -27267    -25083    -24761    -26772    -29349    -31063    -32133 
    -32132    -30331    -28216    -27464    -27965    -29212    -31712    -34286 
    -34834    -33813    -32389    -30744    -29799    -31188    -34623    -37515 
    -38143    -36813    -33333    -28182    -24080    -22455    -22042    -22466 
    -24575    -28016    -31060    -33471    -35903    -36772    -35789    -34304 
    -32442    -29787    -27468    -26671    -27040    -28282    -30213    -31975 
    -31655    -29721    -27857    -25978    -24535    -24746    -26442    -27998 
    -28585    -28560    -27891    -26260    -25350    -25349    -24525    -23435 
    -23526    -24893    -26612    -28158    -28981    -28433    -27140    -27199 
    -28727    -30859    -33899    -37128    -38657    -37595    -34869    -31335 
    -27554    -25202    -25296    -25932    -26433    -27802    -29586    -30732 
    -31155    -31379    -31276    -30887    -31585    -33657    -35449    -37027 
    -38771    -39707    -39489    -39432    -40403    -41417    -41995    -42673 
    -42585    -40939    -39244    -37874    -35898    -33157    -30991    -30022 
    -29732    -30682    -32223    -32178    -29837    -26831    -24027    -21567 
    -20559    -21633    -23578    -25019    -26388    -27683    -27974    -28077 
    -29206    -30605    -31873    -33193    -33972    -33075    -30693    -28572 
    -27323    -26812    -27537    -29137    -30139    -30736    -31650    -32458 
    -32451    -32049    -32390    -33216    -34366    -36426    -37921    -36985 
    -34867    -32851    -31611    -31633    -32744    -34177    -33669    -31480 
    -29201    -26564    -23998    -22764    -22251    -21066    -19147    -17401 
    -16034    -14481    -14133    -15595    -17685    -19685    -21266    -22006 
    -21758    -21455    -21986    -23304    -25208    -28555    -33044    -37232 
    -41348    -45254    -47531    -48301    -48621    -48825    -48183    -46383 
    -43992    -39953    -34203    -29028    -25749    -23663    -22134    -21703 
    -21808    -22059    -23956    -28137    -32713    -36233    -38912    -40197 
    -40207    -41188    -44109    -47188    -48593    -47968    -45244    -40509 
    -35308    -30914    -26946    -23348    -21228    -19826    -17587    -14688 
    -11701     -9013     -7277     -7964    -10949    -13991    -16725    -19172 
    -20216    -21733    -24359    -27243    -29986    -33302    -38617    -43420 
    -47222    -50902    -52868    -52338    -50434    -48798    -46894    -44000 
    -41289    -38948    -35535    -30540    -25422    -21042    -17555    -15969 
    -16307    -16960    -17018    -17597    -18964    -20473    -22533    -25336 
    -27935    -30030    -32281    -34302    -35241    -35667    -36338    -36921 
    -37541    -38308    -38558    -37088    -34099    -31289    -29589    -28564 
    -28633    -30771    -32309    -32192    -31830    -32140    -32955    -32811 
    -32726    -32347    -31418    -31581    -32407    -32495    -31193    -29732 
    -28729    -28556    -29964    -31539    -31540    -30625    -30141    -29703 
    -29370    -30171    -31672    -33076    -34983    -37356    -38151    -35887 
    -32313    -29101    -26334    -24469    -23253    -21139    -17391    -13863 
    -11729    -10462     -9870    -10475    -11832    -13414    -16263    -20809 
    -25944    -30637    -35208    -38598    -40226    -40653    -40692    -40551 
    -38965    -36494    -34046    -32741    -33091    -34779    -37025    -38408 
    -38675    -38237    -37173    -36544    -37061    -37398    -37088    -36517 
    -36065    -34955    -34096    -34696    -35474    -35608    -35401    -35225 
    -34050    -32241    -31250    -31569    -32647    -34566    -37533    -39974 
    -40567    -39432    -36811    -32795    -29342    -27260    -25471    -23161 
    -20358    -17569    -14923    -13919    -15254    -17728    -20905    -24977 
    -29530    -33567    -36591    -38783    -39520    -38432    -36975    -35993 
    -33740    -30291    -27313    -24784    -22439    -19935    -18084    -16650 
    -15537    -16024    -17685    -19682    -22020    -24561    -26454    -28081 
    -30288    -33104    -35196    -35951    -36142    -35466    -34381    -34388 
    -35184    -35157    -34611    -33997    -32888    -31374    -30750    -31497 
    -32087    -32339    -32643    -32291    -30978    -30356    -31211    -32271 
    -33338    -34911    -36221    -36800    -37187    -37478    -37169    -36367 
    -36608    -37457    -38239    -39827    -41671    -41983    -40696    -39017 
    -36550    -33141    -29740    -27218    -25004    -22576    -20307    -18148 
    -15814    -14733    -15911    -17886    -20537    -23990    -27452    -29719 
    -31000    -31972    -31836    -30494    -28831    -27305    -25220    -23303 
    -22686    -23237    -24573    -26846    -29311    -29998    -29015    -28062 
    -26871    -25391    -25275    -26957    -29427    -31214    -32880    -34076 
    -34348    -35614    -38228    -40393    -41399    -42675    -43649    -42742 
    -40720    -39154    -37616    -35785    -34623    -33461    -30836    -27486 
    -24772    -22672    -21869    -22954    -25329    -26475    -26130    -26132 
    -26226    -26616    -27676    -29053    -29768    -30333    -31949    -33787 
    -34542    -34388    -33770    -32359    -31142    -31444    -32794    -33971 
    -34751    -35047    -33992    -32036    -30951    -30665    -29928    -28904 
    -27919    -26302    -24210    -22905    -22725    -22730    -23063    -24206 
    -24528    -23842    -23736    -24760    -26424    -28848    -32114    -34436 
    -35231    -35457    -35717    -35365    -34878    -35259    -35096    -33662 
    -31805    -30106    -28434    -27351    -28007    -29564    -30343    -30976 
    -31987    -32510    -32809    -33953    -35955    -37496    -38660    -39902 
    -40039    -39152    -38388    -37587    -36098    -34710    -34486    -34810 
    -34720    -34282    -32872    -29737    -26261    -24314    -23309    -22123 
    -21127    -20310    -19634    -19872    -22038    -25261    -27873    -29907 
    -31527    -31880    -31262    -30916    -30720    -30513    -30600    -30977 
    -30354    -28231    -26119    -24294    -22482    -21767    -22456    -23647 
    -24845    -26060    -26936    -26458    -25834    -26722    -28034    -29034 
    -30411    -31812    -32238    -32055    -31862    -31153    -29441    -28284 
    -28467    -28693    -29195    -30298    -31124    -31820    -33632    -36644 
    -39221    -40644    -42043    -42951    -42741    -42913    -43937    -44612 
    -43942    -42712    -41029    -38022    -34833    -32326    -29053    -24910 
    -21552    -19459    -18240    -18024    -19378    -21794    -24398    -27566 
    -31152    -33231    -34242    -35191    -35597    -35678    -35874    -36576 
    -36541    -35369    -33985    -31789    -28865    -26960    -26525    -26566 
    -26708    -27331    -28275    -28688    -28714    -28861    -28604    -27807 
    -27420    -27254    -26683    -25947    -25452    -24762    -23436    -22823 
    -23038    -23280    -24619    -27376    -29800    -31272    -32413    -33128 
    -32813    -31955    -31893    -32095    -31919    -32016    -31904    -30346 
